SHAONIAN XING           
1 43199U 18015H   21206.17011780  .00003517  00000-0  13202-3 0  9994
2 43199  97.4713 338.7558 0017309 117.3360   7.6615 15.27745252193401
NUSAT-5 (MARYAM)        
1 43204U 18015K   21206.17995663  .00002635  00000-0  10430-3 0  9992
2 43204  97.4919 340.2098 0017653 120.3581   2.4461 15.26219497192894
BEIDOU-3 M5             
1 43207U 18018A   21205.07543721 -.00000036  00000-0  00000-0 0  9993
2 43207  55.3380 122.8307 0007163 335.1727  24.7899  1.86231799 23426
BEIDOU-3 M6             
1 43208U 18018B   21204.60516989 -.00000039  00000-0  00000-0 0  9991
2 43208  55.3369 122.8512 0009241 304.8767  55.0326  1.86231681 23419
PAZ                     
1 43215U 18020A   21206.19114880 -.00000186  00000-0 -56625-5 0  9995
2 43215  97.4447 213.2188 0001739  84.4715 343.0885 15.19149891189564
GOES 17                 
1 43226U 18022A   21205.49694050  .00000082  00000-0  00000-0 0  9997
2 43226   0.0651 253.1160 0000709 257.8021 193.2117  1.00273857 12471
HISPASAT 30W-6          
1 43228U 18023A   21205.37472279 -.00000232  00000-0  00000-0 0  9992
2 43228   0.0377  50.6718 0005207  46.9634 309.5752  1.00268310 12523
PODSAT                  
1 43229U 18023B   21205.21408726  .00159737  12440-6  58836-3 0  9996
2 43229  26.9155  60.1717 4914196 211.0512 107.3271  5.96128143 63276
O3B FM15                
1 43231U 18024A   21205.47165861 -.00000028  00000-0  00000-0 0  9997
2 43231   0.0522   7.4308 0002637 112.0979 240.4934  5.00115577 61535
O3B FM16                
1 43232U 18024B   21203.92584379 -.00000025  00000-0  00000-0 0  9992
2 43232   0.0556  10.1840 0002667 107.6121 242.2275  5.00115513 61388
O3B FM14                
1 43233U 18024C   21205.36482832 -.00000028  00000-0  00000-0 0  9997
2 43233   0.0565  11.3273 0002810 105.6487 243.0485  5.00116012 61461
O3B FM13                
1 43234U 18024D   21205.37851821 -.00000028  00000-0  00000-0 0  9997
2 43234   0.0573 342.4174 0002267  72.1428 305.4567  5.00115680 61585
LKW-4                   
1 43236U 18025A   21205.77573793  .00001441  00000-0  62964-4 0  9993
2 43236  97.4459 324.0112 0003011 256.5593 103.5308 15.23722708186575
BEIDOU-3 M7             
1 43245U 18029A   21205.98010220 -.00000109  00000-0  00000+0 0  9990
2 43245  55.3091   1.6364 0001277  96.1769 315.2037  1.86232708 22594
BEIDOU-3 M8             
1 43246U 18029B   21205.30040978 -.00000107  00000-0  10000-3 0  9993
2 43246  55.3058   1.6908 0003558   8.9242 352.9609  1.86232681 22574
IRIDIUM 144             
1 43249U 18030A   21205.36578439  .00000080  00000-0  21508-4 0  9997
2 43249  86.3987 317.9745 0002414  86.2487 273.8985 14.34218260173742
IRIDIUM 149             
1 43250U 18030B   21206.06980265  .00000084  00000-0  22956-4 0  9993
2 43250  86.3986 317.6665 0002233  83.3657 276.7792 14.34219696173862
IRIDIUM 157             
1 43251U 18030C   21205.39114654  .00000083  00000-0  22583-4 0  9995
2 43251  86.3988 317.9636 0002144 104.1382 256.0052 14.34219665173747
IRIDIUM 140             
1 43252U 18030D   21205.54972152  .00000084  00000-0  22877-4 0  9995
2 43252  86.3988 317.9118 0002675  77.1877 282.9617 14.34218313173823
IRIDIUM 145             
1 43253U 18030E   21205.39748662  .00000080  00000-0  21356-4 0  9993
2 43253  86.3988 317.9539 0001896  60.1072 300.0312 14.34219570173734
IRIDIUM 146             
1 43254U 18030F   21205.37845752  .00000063  00000-0  15520-4 0  9997
2 43254  86.3987 317.9784 0001960  87.0883 273.0537 14.34215715173742
IRIDIUM 148             
1 43255U 18030G   21206.04443752  .00000089  00000-0  24663-4 0  9993
2 43255  86.3990 317.7176 0001943  97.8541 262.2875 14.34217781173886
IRIDIUM 142             
1 43256U 18030H   21205.38480491  .00000082  00000-0  22127-4 0  9997
2 43256  86.3986 317.9480 0002148  92.9258 267.2184 14.34219635173744
IRIDIUM 150             
1 43257U 18030J   21206.05077087  .00000081  00000-0  21706-4 0  9997
2 43257  86.3990 317.7283 0002249  89.7481 270.3973 14.34215904173884
IRIDIUM 143             
1 43258U 18030K   21205.54338229  .00000079  00000-0  21312-4 0  9999
2 43258  86.3992 317.9593 0002026  80.7958 279.3467 14.34218149173720
GAOFEN 1-02             
1 43259U 18031A   21205.72602682  .00000070  00000-0  17212-4 0  9993
2 43259  97.9327 283.7617 0004080   8.5614 351.5669 14.76514807178781
GAOFEN 1-03             
1 43260U 18031B   21206.11114675  .00000051  00000-0  14520-4 0  9997
2 43260  97.9317 284.1256 0006834  61.0973 299.0935 14.76519955178834
GAOFEN 1-04             
1 43262U 18031D   21206.15410192  .00000083  00000-0  19175-4 0  9992
2 43262  97.9326 284.1747 0004869  24.5400 335.6053 14.76519755178832
SUPERBIRD 8             
1 43271U 18033A   21205.84353566 -.00000109  00000-0  00000+0 0  9992
2 43271   0.0206  88.5059 0001422  68.3035 251.6292  1.00269283 12119
HYLAS 4                 
1 43272U 18033B   21205.80462844 -.00000250  00000-0  00000+0 0  9996
2 43272   0.0540 129.1115 0004541  28.8156  40.9641  1.00272666 12145
YAOGAN 31 A             
1 43275U 18034A   21206.08216573 -.00000104  00000-0 -21829-4 0  9993
2 43275  63.4040   6.9883 0114616   3.2948 356.8811 13.45208928161663
YAOGAN 31 B             
1 43276U 18034B   21206.08236777 -.00000104  00000-0 -22674-4 0  9991
2 43276  63.4042   6.9741 0114643   3.2308 356.9438 13.45208245161667
YAOGAN 31 C             
1 43277U 18034C   21205.41315647 -.00000065  00000-0  40608-4 0  9994
2 43277  63.4050   7.8962 0114619   3.1756 356.9972 13.45208767161595
WEINA 1B                
1 43279U 18034E   21205.87597922 -.00000090  00000-0  31207-6 0  9999
2 43279  63.4043   7.6145 0114653   4.4515 355.7501 13.45188558161630
IRNSS-1I                
1 43286U 18035A   21203.81251115  .00000056  00000-0  00000+0 0  9992
2 43286  29.1587 102.7573 0018460 181.3375   4.2350  1.00276926 12111
USA 283                 
1 43339U 18036A   21203.52516156 -.00000328  00000-0  00000+0 0  9992
2 43339   0.0201  44.2175 0000413 121.3553  98.0386  1.00269092   786
COSMOS 2526             
1 43432U 18037A   21205.76502331 -.00000360  00000-0  00000+0 0  9991
2 43432   0.0252  99.8173 0000523  70.1928 176.1481  1.00274329 12033
TESS                    
1 43435U 18038A   21204.84860719 -.00003335  00000-0  00000+0 0  9995
2 43435  16.1850  86.7466 5984441 188.0501   8.4768  0.06992485   250
SENTINEL-3B             
1 43437U 18039A   21206.15793144  .00000004  00000-0  19669-4 0  9996
2 43437  98.6273 273.1399 0001626  98.9153 261.2212 14.26734621169167
ZHUHAI-1 OHS-01         
1 43439U 18040A   21205.51496852  .00001599  00000-0  78804-4 0  9991
2 43439  97.2890 271.3866 0015078  98.4696  15.5247 15.19253478179888
ZHUHAI-1 OVS-02         
1 43440U 18040B   21205.83971883  .00001561  00000-0  76703-4 0  9995
2 43440  97.2914 271.7738 0012870 114.8815  18.9026 15.19412948179940
ZHUHAI-1 OHS-02         
1 43441U 18040C   21206.14588228  .00001469  00000-0  72272-4 0  9992
2 43441  97.3028 273.8118 0012874 131.7321 312.0220 15.19455763179998
ZHUHAI-1 OHS-03         
1 43442U 18040D   21205.87424712  .00001370  00000-0  67080-4 0  9991
2 43442  97.2862 271.6186 0007133 126.5237 346.7129 15.19772329179953
ZHUHAI-1 OHS-04         
1 43443U 18040E   21206.18574858  .00001517  00000-0  74899-4 0  9993
2 43443  97.2933 272.6602 0008233  97.4150 347.3676 15.19319961180000
USA 285                 
1 43445U 18036E   21205.40534278 -.00000127  00000-0  00000-0 0  9992
2 43445   2.7394  86.6960 0008043  94.1385  30.6030  1.02113252  8677
USA 286                 
1 43446U 18036F   21204.76417628 -.00000010  00000-0  00000-0 0  9991
2 43446   2.7362  86.6216 0007886  90.6003 187.0245  1.02118733  8640
APSTAR 6C               
1 43450U 18041A   21203.97189719 -.00000331  00000-0  00000-0 0  9997
2 43450   0.0422 242.4929 0001652 272.3224 269.9511  1.00267681 11897
GAOFEN 5                
1 43461U 18043A   21206.11104610  .00000020  00000-0  14424-4 0  9990
2 43461  98.2332 144.2510 0001066 185.4755 174.6435 14.57830291170965
BANGABANDHUSAT-1        
1 43463U 18044A   21205.56577233 -.00000379  00000-0  00000-0 0  9995
2 43463   0.0166 101.5249 0002387  25.6077 138.1279  1.00271971 11779
GRACE-FO 1              
1 43476U 18047A   21205.57893340  .00000491  00000-0  18713-4 0  9991
2 43476  88.9795  83.1307 0018266 156.1880 204.0216 15.24307406176467
GRACE-FO 2              
1 43477U 18047B   21205.57924614  .00000489  00000-0  18632-4 0  9998
2 43477  88.9795  83.1339 0018077 155.7736 204.4366 15.24307281176469
IRIDIUM 161             
1 43478U 18047C   21205.50282085  .00000122  00000-0  30356-4 0  9992
2 43478  86.4500 116.0334 0002544  86.0760 274.0731 14.43283471167141
IRIDIUM 152             
1 43479U 18047D   21206.21379423  .00000105  00000-0  30430-4 0  9999
2 43479  86.3973 115.6041 0001917  80.3584 279.7829 14.34218901166223
IRIDIUM 147             
1 43480U 18047E   21205.45266803  .00000101  00000-0  28862-4 0  9995
2 43480  86.3975 115.8965 0002149  90.1927 269.9515 14.34219700166100
IRIDIUM 110             
1 43481U 18047F   21206.15669570  .00000101  00000-0  29040-4 0  9991
2 43481  86.3978 115.6468 0002471  79.6802 280.4673 14.34216675166192
IRIDIUM 162             
1 43482U 18047G   21205.49639158  .00000115  00000-0  28244-4 0  9997
2 43482  86.4499 115.9511 0002555  78.6607 281.4880 14.43284162167131
GAOFEN 6                
1 43484U 18048A   21205.57278803  .00000055  00000-0  15225-4 0  9993
2 43484  97.9575 286.2429 0009723 172.9750 187.1608 14.76495222169450
LUOJIA-1 01             
1 43485U 18048B   21205.45998214  .00000161  00000-0  30251-4 0  9990
2 43485  97.9610 286.6430 0011445 170.1868 189.9579 14.76872615169453
SES-12                  
1 43488U 18049A   21205.75952065 -.00000286  00000-0  00000+0 0  9994
2 43488   0.0169  58.5299 0000586 158.6640  93.9056  1.00272501 11486
